{
  "type": "FeatureCollection",
  "features": [
    {
      "type": "Feature",
      "properties": {
        "norad_id": 31825,
        "name": "FENGYUN 1C DEB",
        "group": "fengyun-1c-debris",
        "lat": -75.1980975824579,
        "lon": 136.93616132879808,
        "alt_km": 773.430204642731,
        "timestamp": "2025-12-18T08:58:43.696033+00:00",
        "meta_object_name": "FENGYUN 1C DEB",
        "meta_object_id": "1999-025CHP",
        "meta_epoch": "2025-12-17T04:43:49.911744",
        "meta_mean_motion": 14.21662941,
        "meta_eccentricity": 0.01653517,
        "meta_inclination": 98.5902,
        "meta_ra_of_asc_node": 350.6819,
        "meta_arg_of_pericenter": 325.3781,
        "meta_mean_anomaly": 33.6718,
        "meta_ephemeris_type": 0,
        "meta_classification_type": "U",
        "meta_norad_cat_id": 31825,
        "meta_element_set_no": 999,
        "meta_rev_at_epoch": 95685,
        "meta_bstar": 0.00053669214,
        "meta_mean_motion_dot": 1.309e-05,
        "meta_mean_motion_ddot": 0,
        "tle_line1": "1 31825U 99025CHP 25351.19710546  .00001309  00000+0  53669-3 0  9997",
        "tle_line2": "2 31825  98.5902 350.6819 0165351 325.3781  33.6718 14.21662941956853"
      },
      "geometry": {
        "type": "Point",
        "coordinates": [
          136.93616132879808,
          -75.1980975824579
        ]
      }
    },
    {
      "type": "Feature",
      "properties": {
        "norad_id": 31826,
        "name": "FENGYUN 1C DEB",
        "group": "fengyun-1c-debris",
        "lat": 72.14238457069162,
        "lon": -44.755985933476964,
        "alt_km": 833.21783395679,
        "timestamp": "2025-12-18T08:58:43.696043+00:00",
        "meta_object_name": "FENGYUN 1C DEB",
        "meta_object_id": "1999-025CHQ",
        "meta_epoch": "2025-12-17T11:20:31.536672",
        "meta_mean_motion": 14.19282356,
        "meta_eccentricity": 0.01241489,
        "meta_inclination": 98.626,
        "meta_ra_of_asc_node": 342.4759,
        "meta_arg_of_pericenter": 175.6113,
        "meta_mean_anomaly": 336.4412,
        "meta_ephemeris_type": 0,
        "meta_classification_type": "U",
        "meta_norad_cat_id": 31826,
        "meta_element_set_no": 999,
        "meta_rev_at_epoch": 95881,
        "meta_bstar": 0.00029972174,
        "meta_mean_motion_dot": 6.37e-06,
        "meta_mean_motion_ddot": 0,
        "tle_line1": "1 31826U 99025CHQ 25351.47258723  .00000637  00000+0  29972-3 0  9996",
        "tle_line2": "2 31826  98.6260 342.4759 0124148 175.6113 336.4412 14.19282356958816"
      },
      "geometry": {
        "type": "Point",
        "coordinates": [
          -44.755985933476964,
          72.14238457069162
        ]
      }
    },
    {
      "type": "Feature",
      "properties": {
        "norad_id": 31829,
        "name": "FENGYUN 1C DEB",
        "group": "fengyun-1c-debris",
        "lat": 4.055123641312913,
        "lon": 161.28135690957524,
        "alt_km": 1036.133994198195,
        "timestamp": "2025-12-18T08:58:43.696054+00:00",
        "meta_object_name": "FENGYUN 1C DEB",
        "meta_object_id": "1999-025CHT",
        "meta_epoch": "2025-12-17T17:28:41.251008",
        "meta_mean_motion": 13.88689135,
        "meta_eccentricity": 0.01692756,
        "meta_inclination": 98.8357,
        "meta_ra_of_asc_node": 161.3008,
        "meta_arg_of_pericenter": 150.8846,
        "meta_mean_anomaly": 227.3761,
        "meta_ephemeris_type": 0,
        "meta_classification_type": "U",
        "meta_norad_cat_id": 31829,
        "meta_element_set_no": 999,
        "meta_rev_at_epoch": 94217,
        "meta_bstar": 0.0003456228,
        "meta_mean_motion_dot": 4.27e-06,
        "meta_mean_motion_ddot": 0,
        "tle_line1": "1 31829U 99025CHT 25351.72825522  .00000427  00000+0  34562-3 0  9992",
        "tle_line2": "2 31829  98.8357 161.3008 0169275 150.8846 227.3761 13.88689135942179"
      },
      "geometry": {
        "type": "Point",
        "coordinates": [
          161.28135690957524,
          4.055123641312913
        ]
      }
    },
    {
      "type": "Feature",
      "properties": {
        "norad_id": 31830,
        "name": "FENGYUN 1C DEB",
        "group": "fengyun-1c-debris",
        "lat": -80.11711711145405,
        "lon": -149.9688069562693,
        "alt_km": 846.1570716771712,
        "timestamp": "2025-12-18T08:58:43.696064+00:00",
        "meta_object_name": "FENGYUN 1C DEB",
        "meta_object_id": "1999-025CHU",
        "meta_epoch": "2025-12-15T06:54:50.226048",
        "meta_mean_motion": 13.8343162,
        "meta_eccentricity": 0.01825744,
        "meta_inclination": 99.1632,
        "meta_ra_of_asc_node": 94.9109,
        "meta_arg_of_pericenter": 307.6254,
        "meta_mean_anomaly": 78.4234,
        "meta_ephemeris_type": 0,
        "meta_classification_type": "U",
        "meta_norad_cat_id": 31830,
        "meta_element_set_no": 999,
        "meta_rev_at_epoch": 92775,
        "meta_bstar": 0.0017258986,
        "meta_mean_motion_dot": 2.116e-05,
        "meta_mean_motion_ddot": 0,
        "tle_line1": "1 31830U 99025CHU 25349.28808132  .00002116  00000+0  17259-2 0  9990",
        "tle_line2": "2 31830  99.1632  94.9109 0182574 307.6254  78.4234 13.83431620927752"
      },
      "geometry": {
        "type": "Point",
        "coordinates": [
          -149.9688069562693,
          -80.11711711145405
        ]
      }
    },
    {
      "type": "Feature",
      "properties": {
        "norad_id": 31834,
        "name": "FENGYUN 1C DEB",
        "group": "fengyun-1c-debris",
        "lat": 80.38979706573592,
        "lon": 92.4953693263831,
        "alt_km": 775.8210039666501,
        "timestamp": "2025-12-18T08:58:43.696074+00:00",
        "meta_object_name": "FENGYUN 1C DEB",
        "meta_object_id": "1999-025CHY",
        "meta_epoch": "2025-12-17T20:33:43.085088",
        "meta_mean_motion": 14.03156821,
        "meta_eccentricity": 0.0162661,
        "meta_inclination": 98.3673,
        "meta_ra_of_asc_node": 211.6515,
        "meta_arg_of_pericenter": 63.1961,
        "meta_mean_anomaly": 298.574,
        "meta_ephemeris_type": 0,
        "meta_classification_type": "U",
        "meta_norad_cat_id": 31834,
        "meta_element_set_no": 999,
        "meta_rev_at_epoch": 63782,
        "meta_bstar": 0.00021867643,
        "meta_mean_motion_dot": 3.45e-06,
        "meta_mean_motion_ddot": 0,
        "tle_line1": "1 31834U 99025CHY 25351.85674867  .00000345  00000+0  21868-3 0  9990",
        "tle_line2": "2 31834  98.3673 211.6515 0162661  63.1961 298.5740 14.03156821637828"
      },
      "geometry": {
        "type": "Point",
        "coordinates": [
          92.4953693263831,
          80.38979706573592
        ]
      }
    },
    {
      "type": "Feature",
      "properties": {
        "norad_id": 31837,
        "name": "FENGYUN 1C DEB",
        "group": "fengyun-1c-debris",
        "lat": 16.8101221144968,
        "lon": -109.54939237284943,
        "alt_km": 685.0915674826001,
        "timestamp": "2025-12-18T08:58:43.696084+00:00",
        "meta_object_name": "FENGYUN 1C DEB",
        "meta_object_id": "1999-025CJB",
        "meta_epoch": "2025-12-17T11:11:13.196544",
        "meta_mean_motion": 14.8231702,
        "meta_eccentricity": 0.00932487,
        "meta_inclination": 98.1004,
        "meta_ra_of_asc_node": 67.0654,
        "meta_arg_of_pericenter": 2.43,
        "meta_mean_anomaly": 357.7347,
        "meta_ephemeris_type": 0,
        "meta_classification_type": "U",
        "meta_norad_cat_id": 31837,
        "meta_element_set_no": 999,
        "meta_rev_at_epoch": 98429,
        "meta_bstar": 0.00072690461,
        "meta_mean_motion_dot": 6.211e-05,
        "meta_mean_motion_ddot": 0,
        "tle_line1": "1 31837U 99025CJB 25351.46612496  .00006211  00000+0  72690-3 0  9997",
        "tle_line2": "2 31837  98.1004  67.0654 0093248   2.4300 357.7347 14.82317020984295"
      },
      "geometry": {
        "type": "Point",
        "coordinates": [
          -109.54939237284943,
          16.8101221144968
        ]
      }
    },
    {
      "type": "Feature",
      "properties": {
        "norad_id": 31838,
        "name": "FENGYUN 1C DEB",
        "group": "fengyun-1c-debris",
        "lat": -67.19636414294713,
        "lon": -158.41212989229103,
        "alt_km": 855.8099026542432,
        "timestamp": "2025-12-18T08:58:43.696097+00:00",
        "meta_object_name": "FENGYUN 1C DEB",
        "meta_object_id": "1999-025CJC",
        "meta_epoch": "2025-12-17T08:26:31.079040",
        "meta_mean_motion": 14.21147066,
        "meta_eccentricity": 0.00383301,
        "meta_inclination": 98.7181,
        "meta_ra_of_asc_node": 41.9841,
        "meta_arg_of_pericenter": 82.4051,
        "meta_mean_anomaly": 338.6922,
        "meta_ephemeris_type": 0,
        "meta_classification_type": "U",
        "meta_norad_cat_id": 31838,
        "meta_element_set_no": 999,
        "meta_rev_at_epoch": 64642,
        "meta_bstar": 0.00054487511,
        "meta_mean_motion_dot": 1.15e-05,
        "meta_mean_motion_ddot": 0,
        "tle_line1": "1 31838U 99025CJC 25351.35174860  .00001150  00000+0  54488-3 0  9996",
        "tle_line2": "2 31838  98.7181  41.9841 0038330  82.4051 338.6922 14.21147066646420"
      },
      "geometry": {
        "type": "Point",
        "coordinates": [
          -158.41212989229103,
          -67.19636414294713
        ]
      }
    }
  ]
}